{
  "type": "FeatureCollection",
  "features": [
    {
      "type": "Feature",
      "properties": {
        "norad_id": 66582,
        "name": "STARLINK-35746",
        "group": "last-30-days",
        "lat": 16.789647352688373,
        "lon": 118.24702387081288,
        "alt_km": 412.0862192688892,
        "timestamp": "2025-12-16T10:53:44.205142+00:00",
        "meta_object_name": "STARLINK-35746",
        "meta_object_id": "2025-268AB",
        "meta_epoch": "2025-12-15T16:14:18.019680",
        "meta_mean_motion": 15.50668046,
        "meta_eccentricity": 0.00017067,
        "meta_inclination": 42.998,
        "meta_ra_of_asc_node": 103.9029,
        "meta_arg_of_pericenter": 273.2924,
        "meta_mean_anomaly": 86.7741,
        "meta_ephemeris_type": 0,
        "meta_classification_type": "U",
        "meta_norad_cat_id": 66582,
        "meta_element_set_no": 999,
        "meta_rev_at_epoch": 508,
        "meta_bstar": 0.0013429781,
        "meta_mean_motion_dot": 0.00079502,
        "meta_mean_motion_ddot": 0,
        "tle_line1": "1 66582U 25268AB  25349.67659745  .00079502  00000+0  13430-2 0  9997",
        "tle_line2": "2 66582  42.9980 103.9029 0001706 273.2924  86.7741 15.50668046  5085"
      },
      "geometry": {
        "type": "Point",
        "coordinates": [
          118.24702387081288,
          16.789647352688373
        ]
      }
    },
    {
      "type": "Feature",
      "properties": {
        "norad_id": 66583,
        "name": "STARLINK-35941",
        "group": "last-30-days",
        "lat": 17.840251248352626,
        "lon": 119.55258446576697,
        "alt_km": 412.48449656718276,
        "timestamp": "2025-12-16T10:53:44.205153+00:00",
        "meta_object_name": "STARLINK-35941",
        "meta_object_id": "2025-268AC",
        "meta_epoch": "2025-12-15T16:13:49.731456",
        "meta_mean_motion": 15.50600586,
        "meta_eccentricity": 0.00020242,
        "meta_inclination": 43.0008,
        "meta_ra_of_asc_node": 103.8989,
        "meta_arg_of_pericenter": 261.3584,
        "meta_mean_anomaly": 98.7047,
        "meta_ephemeris_type": 0,
        "meta_classification_type": "U",
        "meta_norad_cat_id": 66583,
        "meta_element_set_no": 999,
        "meta_rev_at_epoch": 508,
        "meta_bstar": 0.0013063491,
        "meta_mean_motion_dot": 0.00077115,
        "meta_mean_motion_ddot": 0,
        "tle_line1": "1 66583U 25268AC  25349.67627004  .00077115  00000+0  13063-2 0  9991",
        "tle_line2": "2 66583  43.0008 103.8989 0002024 261.3584  98.7047 15.50600586  5084"
      },
      "geometry": {
        "type": "Point",
        "coordinates": [
          119.55258446576697,
          17.840251248352626
        ]
      }
    },
    {
      "type": "Feature",
      "properties": {
        "norad_id": 66584,
        "name": "STARLINK-35939",
        "group": "last-30-days",
        "lat": 19.090385366416474,
        "lon": 121.14776243157358,
        "alt_km": 411.9697072984818,
        "timestamp": "2025-12-16T10:53:44.205165+00:00",
        "meta_object_name": "STARLINK-35939",
        "meta_object_id": "2025-268AD",
        "meta_epoch": "2025-12-15T16:13:20.006400",
        "meta_mean_motion": 15.50617474,
        "meta_eccentricity": 0.00025608,
        "meta_inclination": 42.9983,
        "meta_ra_of_asc_node": 103.897,
        "meta_arg_of_pericenter": 280.3061,
        "meta_mean_anomaly": 79.751,
        "meta_ephemeris_type": 0,
        "meta_classification_type": "U",
        "meta_norad_cat_id": 66584,
        "meta_element_set_no": 999,
        "meta_rev_at_epoch": 508,
        "meta_bstar": 0.0012332001,
        "meta_mean_motion_dot": 0.00072784,
        "meta_mean_motion_ddot": 0,
        "tle_line1": "1 66584U 25268AD  25349.67592600  .00072784  00000+0  12332-2 0  9990",
        "tle_line2": "2 66584  42.9983 103.8970 0002560 280.3061  79.7510 15.50617474  5089"
      },
      "geometry": {
        "type": "Point",
        "coordinates": [
          121.14776243157358,
          19.090385366416474
        ]
      }
    },
    {
      "type": "Feature",
      "properties": {
        "norad_id": 66585,
        "name": "STARLINK-35963",
        "group": "last-30-days",
        "lat": 20.266750162457143,
        "lon": 122.68397152100847,
        "alt_km": 411.7291656170755,
        "timestamp": "2025-12-16T10:53:44.205175+00:00",
        "meta_object_name": "STARLINK-35963",
        "meta_object_id": "2025-268AE",
        "meta_epoch": "2025-12-15T16:12:50.448096",
        "meta_mean_motion": 15.50601015,
        "meta_eccentricity": 0.00020109,
        "meta_inclination": 43.0001,
        "meta_ra_of_asc_node": 103.8943,
        "meta_arg_of_pericenter": 282.8945,
        "meta_mean_anomaly": 77.1691,
        "meta_ephemeris_type": 0,
        "meta_classification_type": "U",
        "meta_norad_cat_id": 66585,
        "meta_element_set_no": 999,
        "meta_rev_at_epoch": 508,
        "meta_bstar": 0.0012364662,
        "meta_mean_motion_dot": 0.00072934,
        "meta_mean_motion_ddot": 0,
        "tle_line1": "1 66585U 25268AE  25349.67558389  .00072934  00000+0  12365-2 0  9990",
        "tle_line2": "2 66585  43.0001 103.8943 0002010 282.8945  77.1691 15.50601015  5087"
      },
      "geometry": {
        "type": "Point",
        "coordinates": [
          122.68397152100847,
          20.266750162457143
        ]
      }
    },
    {
      "type": "Feature",
      "properties": {
        "norad_id": 66586,
        "name": "TJS-21",
        "group": "last-30-days",
        "lat": 63.10666882508711,
        "lon": -101.83664665991539,
        "alt_km": 38114.48379764132,
        "timestamp": "2025-12-16T10:53:44.205191+00:00",
        "meta_object_name": "TJS-21",
        "meta_object_id": "2025-269A",
        "meta_epoch": "2025-12-10T17:31:22.184832",
        "meta_mean_motion": 2.00567425,
        "meta_eccentricity": 0.6805766,
        "meta_inclination": 63.269,
        "meta_ra_of_asc_node": 162.5612,
        "meta_arg_of_pericenter": 269.7806,
        "meta_mean_anomaly": 18.6565,
        "meta_ephemeris_type": 0,
        "meta_classification_type": "U",
        "meta_norad_cat_id": 66586,
        "meta_element_set_no": 999,
        "meta_rev_at_epoch": 39,
        "meta_bstar": -0.044965385,
        "meta_mean_motion_dot": 1.083e-05,
        "meta_mean_motion_ddot": 0,
        "tle_line1": "1 66586U 25269A   25344.73011788  .00001083  00000+0 -44965-1 0  9999",
        "tle_line2": "2 66586  63.2690 162.5612 6805766 269.7806  18.6565  2.00567425   392"
      },
      "geometry": {
        "type": "Point",
        "coordinates": [
          -101.83664665991539,
          63.10666882508711
        ]
      }
    },
    {
      "type": "Feature",
      "properties": {
        "norad_id": 66587,
        "name": "CZ-3B R/B",
        "group": "last-30-days",
        "lat": 39.96864980194166,
        "lon": -149.04819707842518,
        "alt_km": 38883.44793962393,
        "timestamp": "2025-12-16T10:53:44.205206+00:00",
        "meta_object_name": "CZ-3B R/B",
        "meta_object_id": "2025-269B",
        "meta_epoch": "2025-12-12T18:47:24.789120",
        "meta_mean_motion": 2.03336189,
        "meta_eccentricity": 0.7518951,
        "meta_inclination": 51.347,
        "meta_ra_of_asc_node": 169.6347,
        "meta_arg_of_pericenter": 228.7177,
        "meta_mean_anomaly": 37.1847,
        "meta_ephemeris_type": 0,
        "meta_classification_type": "U",
        "meta_norad_cat_id": 66587,
        "meta_element_set_no": 999,
        "meta_rev_at_epoch": 45,
        "meta_bstar": 0.00096662605,
        "meta_mean_motion_dot": 0.00067576,
        "meta_mean_motion_ddot": 1.09445e-06,
        "tle_line1": "1 66587U 25269B   25346.78292580  .00067576  10944-5  96663-3 0  9994",
        "tle_line2": "2 66587  51.3470 169.6347 7518951 228.7177  37.1847  2.03336189   454"
      },
      "geometry": {
        "type": "Point",
        "coordinates": [
          -149.04819707842518,
          39.96864980194166
        ]
      }
    },
    {
      "type": "Feature",
      "properties": {
        "norad_id": 66588,
        "name": "STARLINK-36076",
        "group": "last-30-days",
        "lat": 37.104368955309816,
        "lon": -62.89018174496072,
        "alt_km": 438.7426458373284,
        "timestamp": "2025-12-16T10:53:44.205220+00:00",
        "meta_object_name": "STARLINK-36076",
        "meta_object_id": "2025-270A",
        "meta_epoch": "2025-12-15T22:00:01.999584",
        "meta_mean_motion": 15.40659826,
        "meta_eccentricity": 0.00019162,
        "meta_inclination": 42.9996,
        "meta_ra_of_asc_node": 174.4732,
        "meta_arg_of_pericenter": 236.5104,
        "meta_mean_anomaly": 137.587,
        "meta_ephemeris_type": 0,
        "meta_classification_type": "U",
        "meta_norad_cat_id": 66588,
        "meta_element_set_no": 999,
        "meta_rev_at_epoch": 491,
        "meta_bstar": 0.0015749953,
        "meta_mean_motion_dot": 0.00065972,
        "meta_mean_motion_ddot": 0,
        "tle_line1": "1 66588U 25270A   25349.91668981  .00065972  00000+0  15750-2 0  9998",
        "tle_line2": "2 66588  42.9996 174.4732 0001916 236.5104 137.5870 15.40659826  4911"
      },
      "geometry": {
        "type": "Point",
        "coordinates": [
          -62.89018174496072,
          37.104368955309816
        ]
      }
    }
  ]
}